[{"OBJECT_NAME":"STARLINK-2095","OBJECT_ID":"2021-012BM","EPOCH":"2025-07-29T01:52:32.412288","MEAN_MOTION":15.2836496,"ECCENTRICITY":0.0002554,"INCLINATION":53.0493,"RA_OF_ASC_NODE":334.0844,"ARG_OF_PERICENTER":280.3429,"MEAN_ANOMALY":79.7282,"EPHEMERIS_TYPE":0,"CLASSIFICATION_TYPE":"U","NORAD_CAT_ID":47679,"ELEMENT_SET_NO":999,"REV_AT_EPOCH":24607,"BSTAR":0.0011482,"MEAN_MOTION_DOT":0.0003193,"MEAN_MOTION_DDOT":0},{"OBJECT_NAME":"STARLINK-2068","OBJECT_ID":"2021-017A","EPOCH":"2025-07-29T01:52:29.784000","MEAN_MOTION":15.06409014,"ECCENTRICITY":0.0001397,"INCLINATION":53.0541,"RA_OF_ASC_NODE":120.6918,"ARG_OF_PERICENTER":92.3652,"MEAN_ANOMALY":267.7497,"EPHEMERIS_TYPE":0,"CLASSIFICATION_TYPE":"U","NORAD_CAT_ID":47722,"ELEMENT_SET_NO":999,"REV_AT_EPOCH":24360,"BSTAR":0.00022023,"MEAN_MOTION_DOT":3.001e-5,"MEAN_MOTION_DDOT":0},{"OBJECT_NAME":"STARLINK-2107","OBJECT_ID":"2021-017B","EPOCH":"2025-07-28T19:41:34.578240","MEAN_MOTION":15.06400239,"ECCENTRICITY":0.0001395,"INCLINATION":53.0555,"RA_OF_ASC_NODE":56.6046,"ARG_OF_PERICENTER":97.7395,"MEAN_ANOMALY":262.3752,"EPHEMERIS_TYPE":0,"CLASSIFICATION_TYPE":"U","NORAD_CAT_ID":47723,"ELEMENT_SET_NO":999,"REV_AT_EPOCH":24448,"BSTAR":0.0001006,"MEAN_MOTION_DOT":1.217e-5,"MEAN_MOTION_DDOT":0},{"OBJECT_NAME":"STARLINK-2116","OBJECT_ID":"2021-017C","EPOCH":"2025-07-27T23:52:38.633376","MEAN_MOTION":15.06402619,"ECCENTRICITY":0.0001451,"INCLINATION":53.0542,"RA_OF_ASC_NODE":60.3123,"ARG_OF_PERICENTER":86.8701,"MEAN_ANOMALY":273.2454,"EPHEMERIS_TYPE":0,"CLASSIFICATION_TYPE":"U","NORAD_CAT_ID":47724,"ELEMENT_SET_NO":999,"REV_AT_EPOCH":24496,"BSTAR":0.00046662,"MEAN_MOTION_DOT":6.676e-5,"MEAN_MOTION_DDOT":0},{"OBJECT_NAME":"STARLINK-2131","OBJECT_ID":"2021-017G","EPOCH":"2025-07-29T04:23:03.529536","MEAN_MOTION":15.06405797,"ECCENTRICITY":0.0001491,"INCLINATION":53.0549,"RA_OF_ASC_NODE":124.9833,"ARG_OF_PERICENTER":92.2512,"MEAN_ANOMALY":267.8647,"EPHEMERIS_TYPE":0,"CLASSIFICATION_TYPE":"U","NORAD_CAT_ID":47728,"ELEMENT_SET_NO":999,"REV_AT_EPOCH":24355,"BSTAR":0.00020343,"MEAN_MOTION_DOT":2.75e-5,"MEAN_MOTION_DDOT":0},{"OBJECT_NAME":"STARLINK-2140","OBJECT_ID":"2021-017J","EPOCH":"2025-07-29T01:44:29.602176","MEAN_MOTION":15.06400306,"ECCENTRICITY":0.0001358,"INCLINATION":53.0541,"RA_OF_ASC_NODE":140.485,"ARG_OF_PERICENTER":85.9545,"MEAN_ANOMALY":274.1599,"EPHEMERIS_TYPE":0,"CLASSIFICATION_TYPE":"U","NORAD_CAT_ID":47730,"ELEMENT_SET_NO":999,"REV_AT_EPOCH":24332,"BSTAR":5.1175e-5,"MEAN_MOTION_DOT":4.81e-6,"MEAN_MOTION_DDOT":0},{"OBJECT_NAME":"STARLINK-2141","OBJECT_ID":"2021-017K","EPOCH":"2025-07-29T01:53:06.376128","MEAN_MOTION":15.06403066,"ECCENTRICITY":0.0001385,"INCLINATION":53.0552,"RA_OF_ASC_NODE":135.4494,"ARG_OF_PERICENTER":93.0285,"MEAN_ANOMALY":267.0862,"EPHEMERIS_TYPE":0,"CLASSIFICATION_TYPE":"U","NORAD_CAT_ID":47731,"ELEMENT_SET_NO":999,"REV_AT_EPOCH":24339,"BSTAR":0.00012684,"MEAN_MOTION_DOT":1.608e-5,"MEAN_MOTION_DDOT":0},{"OBJECT_NAME":"STARLINK-2142","OBJECT_ID":"2021-017L","EPOCH":"2025-07-28T22:00:01.999584","MEAN_MOTION":15.73860666,"ECCENTRICITY":0.0011134,"INCLINATION":53.0474,"RA_OF_ASC_NODE":28.1845,"ARG_OF_PERICENTER":237.3654,"MEAN_ANOMALY":6.6351,"EPHEMERIS_TYPE":0,"CLASSIFICATION_TYPE":"U","NORAD_CAT_ID":47732,"ELEMENT_SET_NO":999,"REV_AT_EPOCH":24488,"BSTAR":0.0021896,"MEAN_MOTION_DOT":0.00329155,"MEAN_MOTION_DDOT":0},{"OBJECT_NAME":"STARLINK-2143","OBJECT_ID":"2021-017M","EPOCH":"2025-07-29T04:46:56.586720","MEAN_MOTION":15.06403264,"ECCENTRICITY":0.0001666,"INCLINATION":53.0539,"RA_OF_ASC_NODE":144.9048,"ARG_OF_PERICENTER":120.9753,"MEAN_ANOMALY":239.14,"EPHEMERIS_TYPE":0,"CLASSIFICATION_TYPE":"U","NORAD_CAT_ID":47733,"ELEMENT_SET_NO":999,"REV_AT_EPOCH":24327,"BSTAR":7.3153e-5,"MEAN_MOTION_DOT":8.08e-6,"MEAN_MOTION_DDOT":0},{"OBJECT_NAME":"STARLINK-2144","OBJECT_ID":"2021-017N","EPOCH":"2025-07-29T02:03:44.123040","MEAN_MOTION":15.06400347,"ECCENTRICITY":0.0001422,"INCLINATION":53.0538,"RA_OF_ASC_NODE":135.4139,"ARG_OF_PERICENTER":88.9305,"MEAN_ANOMALY":271.1847,"EPHEMERIS_TYPE":0,"CLASSIFICATION_TYPE":"U","NORAD_CAT_ID":47734,"ELEMENT_SET_NO":999,"REV_AT_EPOCH":24339,"BSTAR":9.7276e-5,"MEAN_MOTION_DOT":1.168e-5,"MEAN_MOTION_DDOT":0},{"OBJECT_NAME":"STARLINK-2147","OBJECT_ID":"2021-017Q","EPOCH":"2025-07-29T04:28:21.669888","MEAN_MOTION":15.06407382,"ECCENTRICITY":0.0001337,"INCLINATION":53.0548,"RA_OF_ASC_NODE":124.9649,"ARG_OF_PERICENTER":85.1701,"MEAN_ANOMALY":274.9441,"EPHEMERIS_TYPE":0,"CLASSIFICATION_TYPE":"U","NORAD_CAT_ID":47736,"ELEMENT_SET_NO":999,"REV_AT_EPOCH":24355,"BSTAR":5.6687e-5,"MEAN_MOTION_DOT":5.63e-6,"MEAN_MOTION_DDOT":0},{"OBJECT_NAME":"STARLINK-2150","OBJECT_ID":"2021-017T","EPOCH":"2025-07-29T02:46:50.985696","MEAN_MOTION":15.06401363,"ECCENTRICITY":0.0001326,"INCLINATION":53.0535,"RA_OF_ASC_NODE":150.2814,"ARG_OF_PERICENTER":92.2157,"MEAN_ANOMALY":267.8984,"EPHEMERIS_TYPE":0,"CLASSIFICATION_TYPE":"U","NORAD_CAT_ID":47739,"ELEMENT_SET_NO":999,"REV_AT_EPOCH":24319,"BSTAR":4.2611e-5,"MEAN_MOTION_DOT":3.53e-6,"MEAN_MOTION_DDOT":0},{"OBJECT_NAME":"STARLINK-2156","OBJECT_ID":"2021-017W","EPOCH":"2025-07-28T23:47:03.049728","MEAN_MOTION":15.06406143,"ECCENTRICITY":0.0001493,"INCLINATION":53.055,"RA_OF_ASC_NODE":125.8445,"ARG_OF_PERICENTER":86.1875,"MEAN_ANOMALY":273.9285,"EPHEMERIS_TYPE":0,"CLASSIFICATION_TYPE":"U","NORAD_CAT_ID":47742,"ELEMENT_SET_NO":999,"REV_AT_EPOCH":24352,"BSTAR":5.6535e-5,"MEAN_MOTION_DOT":5.61e-6,"MEAN_MOTION_DDOT":0},{"OBJECT_NAME":"STARLINK-2159","OBJECT_ID":"2021-017Z","EPOCH":"2025-07-29T02:08:59.607456","MEAN_MOTION":15.06431393,"ECCENTRICITY":0.0001477,"INCLINATION":53.0538,"RA_OF_ASC_NODE":135.3993,"ARG_OF_PERICENTER":84.8476,"MEAN_ANOMALY":275.2682,"EPHEMERIS_TYPE":0,"CLASSIFICATION_TYPE":"U","NORAD_CAT_ID":47745,"ELEMENT_SET_NO":999,"REV_AT_EPOCH":24339,"BSTAR":0.00031973,"MEAN_MOTION_DOT":4.488e-5,"MEAN_MOTION_DDOT":0},{"OBJECT_NAME":"STARLINK-2160","OBJECT_ID":"2021-017AA","EPOCH":"2025-07-29T01:58:24.983040","MEAN_MOTION":15.06402207,"ECCENTRICITY":0.0001366,"INCLINATION":53.053,"RA_OF_ASC_NODE":135.4317,"ARG_OF_PERICENTER":95.3192,"MEAN_ANOMALY":264.7953,"EPHEMERIS_TYPE":0,"CLASSIFICATION_TYPE":"U","NORAD_CAT_ID":47746,"ELEMENT_SET_NO":999,"REV_AT_EPOCH":24339,"BSTAR":0.0001923,"MEAN_MOTION_DOT":2.584e-5,"MEAN_MOTION_DDOT":0},{"OBJECT_NAME":"STARLINK-2161","OBJECT_ID":"2021-017AB","EPOCH":"2025-07-29T03:29:59.119296","MEAN_MOTION":15.06397525,"ECCENTRICITY":0.0001381,"INCLINATION":53.0546,"RA_OF_ASC_NODE":125.1472,"ARG_OF_PERICENTER":85.1772,"MEAN_ANOMALY":274.9374,"EPHEMERIS_TYPE":0,"CLASSIFICATION_TYPE":"U","NORAD_CAT_ID":47747,"ELEMENT_SET_NO":999,"REV_AT_EPOCH":24354,"BSTAR":0.0001977,"MEAN_MOTION_DOT":2.664e-5,"MEAN_MOTION_DDOT":0},{"OBJECT_NAME":"STARLINK-2162","OBJECT_ID":"2021-017AC","EPOCH":"2025-07-29T03:19:21.974592","MEAN_MOTION":15.06396309,"ECCENTRICITY":0.0001348,"INCLINATION":53.0546,"RA_OF_ASC_NODE":125.1789,"ARG_OF_PERICENTER":96.5607,"MEAN_ANOMALY":263.5535,"EPHEMERIS_TYPE":0,"CLASSIFICATION_TYPE":"U","NORAD_CAT_ID":47748,"ELEMENT_SET_NO":999,"REV_AT_EPOCH":24354,"BSTAR":3.9747e-5,"MEAN_MOTION_DOT":3.11e-6,"MEAN_MOTION_DDOT":0}]
