STARLINK-2095           
1 47679U 21012BM  25210.07815292  .00031930  00000+0  11482-2 0  9996
2 47679  53.0493 334.0844 0002554 280.3429  79.7282 15.28364960246077
STARLINK-2068           
1 47722U 21017A   25210.07812250  .00003001  00000+0  22023-3 0  9993
2 47722  53.0541 120.6918 0001397  92.3652 267.7497 15.06409014243603
STARLINK-2107           
1 47723U 21017B   25209.82053910  .00001217  00000+0  10060-3 0  9990
2 47723  53.0555  56.6046 0001395  97.7395 262.3752 15.06400239244482
STARLINK-2116           
1 47724U 21017C   25208.99489159  .00006676  00000+0  46662-3 0  9997
2 47724  53.0542  60.3123 0001451  86.8701 273.2454 15.06402619244967
STARLINK-2131           
1 47728U 21017G   25210.18267974  .00002750  00000+0  20343-3 0  9991
2 47728  53.0549 124.9833 0001491  92.2512 267.8647 15.06405797243555
STARLINK-2140           
1 47730U 21017J   25210.07256484  .00000481  00000+0  51175-4 0  9993
2 47730  53.0541 140.4850 0001358  85.9545 274.1599 15.06400306243322
STARLINK-2141           
1 47731U 21017K   25210.07854602  .00001608  00000+0  12684-3 0  9993
2 47731  53.0552 135.4494 0001385  93.0285 267.0862 15.06403066243391
STARLINK-2142           
1 47732U 21017L   25209.91668981  .00329155  00000+0  21896-2 0  9992
2 47732  53.0474  28.1845 0011134 237.3654   6.6351 15.73860666244881
STARLINK-2143           
1 47733U 21017M   25210.19926605  .00000808  00000+0  73153-4 0  9991
2 47733  53.0539 144.9048 0001666 120.9753 239.1400 15.06403264243275
STARLINK-2144           
1 47734U 21017N   25210.08592735  .00001168  00000+0  97276-4 0  9995
2 47734  53.0538 135.4139 0001422  88.9305 271.1847 15.06400347243390
STARLINK-2147           
1 47736U 21017Q   25210.18636192  .00000563  00000+0  56687-4 0  9993
2 47736  53.0548 124.9649 0001337  85.1701 274.9441 15.06407382243551
STARLINK-2150           
1 47739U 21017T   25210.11586789  .00000353  00000+0  42611-4 0  9994
2 47739  53.0535 150.2814 0001326  92.2157 267.8984 15.06401363243194
STARLINK-2156           
1 47742U 21017W   25209.99100752  .00000561  00000+0  56535-4 0  9995
2 47742  53.0550 125.8445 0001493  86.1875 273.9285 15.06406143243527
STARLINK-2159           
1 47745U 21017Z   25210.08957879  .00004488  00000+0  31973-3 0  9990
2 47745  53.0538 135.3993 0001477  84.8476 275.2682 15.06431393243390
STARLINK-2160           
1 47746U 21017AA  25210.08223360  .00002584  00000+0  19230-3 0  9999
2 47746  53.0530 135.4317 0001366  95.3192 264.7953 15.06402207243399
STARLINK-2161           
1 47747U 21017AB  25210.14582314  .00002664  00000+0  19770-3 0  9992
2 47747  53.0546 125.1472 0001381  85.1772 274.9374 15.06397525243546
STARLINK-2162           
1 47748U 21017AC  25210.13844878  .00000311  00000+0  39747-4 0  9992
2 47748  53.0546 125.1789 0001348  96.5607 263.5535 15.06396309243546
